OBJECT_NAME,OBJECT_ID,EPOCH,MEAN_MOTION,ECCENTRICITY,INCLINATION,RA_OF_ASC_NODE,ARG_OF_PERICENTER,MEAN_ANOMALY,EPHEMERIS_TYPE,CLASSIFICATION_TYPE,NORAD_CAT_ID,ELEMENT_SET_NO,REV_AT_EPOCH,BSTAR,MEAN_MOTION_DOT,MEAN_MOTION_DDOT
STARLINK-37467,2026-094S,2026-05-22T18:00:02.000160,15.57303641,.0001271,97.2848,157.5038,77.2293,29.7359,0,U,68855,999,528,-.13791E-1,-.913315E-2,0
STARLINK-37483,2026-094T,2026-05-22T18:00:02.000160,15.57552734,.0001581,97.2853,157.5039,67.4504,40.8263,0,U,68856,999,528,-.36323E-1,-.2346499E-1,0
STARLINK-37468,2026-094U,2026-05-22T18:00:02.000160,15.57370904,.0001417,97.2852,157.5030,83.5579,26.0530,0,U,68857,999,528,-.29725E-1,-.1917345E-1,0
STARLINK-37441,2026-094V,2026-05-22T18:00:02.000160,15.54523960,.0001356,97.2852,157.4903,85.4555,348.6167,0,U,68858,999,528,-.3192E-1,-.185965E-1,0
STARLINK-37488,2026-094W,2026-05-22T18:00:02.000160,15.51796889,.0001968,97.2847,157.4711,110.6023,273.5990,0,U,68859,999,528,-.29951E-1,-.1608051E-1,0
STARLINK-37388,2026-094X,2026-05-22T18:00:02.000160,15.49177378,.0001061,97.2858,157.3992,96.2269,131.1773,0,U,68860,999,528,.139E-3,.7473E-4,0
STARLINK-37479,2026-094Y,2026-05-22T18:00:02.000160,15.56890726,.0001814,97.2856,157.5034,69.0528,34.3491,0,U,68861,999,528,-.40564E-1,-.2528193E-1,0
STARLINK-37453,2026-094Z,2026-05-22T18:00:02.000160,15.50783038,.0001632,97.2849,157.4617,96.6718,270.4906,0,U,68862,999,528,-.42713E-1,-.2174881E-1,0
STARLINK-37430,2026-094AA,2026-05-22T18:00:02.000160,15.49158020,.0000949,97.2849,157.4478,98.7585,243.7478,0,U,68863,999,528,.37042E-3,.20085E-3,0
KUIPER-00299,2026-095A,2026-05-22T18:00:02.000160,15.27002788,.0009091,51.8782,5.9477,211.1807,291.1718,0,U,68864,999,452,-.62022E-3,-.17005E-3,0
KUIPER-00353,2026-095B,2026-05-22T15:39:31.929696,15.38788881,.0001421,51.8849,5.6468,120.2979,239.8150,0,U,68865,999,380,.92449E-3,.35792E-3,0
KUIPER-00357,2026-095C,2026-05-22T15:50:32.296128,15.38352631,.0003501,51.8843,5.7011,174.1074,185.9955,0,U,68866,999,380,.89078E-3,.33977E-3,0
KUIPER-00364,2026-095D,2026-05-22T08:07:44.060160,15.38112833,.0003549,51.8817,7.2955,178.5908,181.5090,0,U,68867,999,375,.43987E-3,.16407E-3,0
KUIPER-00375,2026-095E,2026-05-22T15:41:59.972640,15.38671422,.0001513,51.8839,5.6631,170.5665,189.5351,0,U,68868,999,380,.86702E-3,.33402E-3,0
KUIPER-00433,2026-095F,2026-05-22T18:00:02.000160,15.08881358,.0007705,51.8827,6.9856,218.7610,191.9356,0,U,68869,999,379,-.18021E-2,-.28933E-3,0
KUIPER-00437,2026-095G,2026-05-22T14:43:02.710848,15.37126564,.0007637,51.8799,6.1314,197.5035,162.5689,0,U,68870,999,379,.38728E-3,.1394E-3,0
KUIPER-00448,2026-095H,2026-05-22T14:20:47.232960,15.38118586,.0003313,51.8846,6.0339,177.5073,182.5932,0,U,68871,999,379,.58115E-3,.21824E-3,0
KUIPER-00459,2026-095J,2026-05-22T15:05:15.289152,15.35835266,.001128,51.8719,6.2148,205.0448,154.9992,0,U,68872,999,379,-.37017E-3,-.13502E-3,0
KUIPER-00468,2026-095K,2026-05-22T14:27:07.664256,15.37794996,.0005294,51.8840,6.0615,186.2812,173.8109,0,U,68873,999,379,.58947E-3,.21912E-3,0
KUIPER-00476,2026-095L,2026-05-22T14:58:55.383168,15.36160013,.0008458,51.8738,6.1931,201.5582,158.5049,0,U,68874,999,379,.94299E-3,.33534E-3,0
KUIPER-00478,2026-095M,2026-05-22T08:35:41.764128,15.36781121,.0007554,51.8778,7.4173,201.0937,158.9739,0,U,68875,999,375,.49517E-3,.1774E-3,0
KUIPER-00480,2026-095N,2026-05-22T08:24:10.576224,15.37365333,.0006601,51.8783,7.3647,191.6991,168.3844,0,U,68876,999,375,.53388E-3,.19529E-3,0
KUIPER-00482,2026-095P,2026-05-22T15:45:41.517792,15.38563903,.0002511,51.8841,5.6782,170.9875,189.1158,0,U,68877,999,380,.771E-3,.2954E-3,0
KUIPER-00483,2026-095Q,2026-05-22T18:00:02.000160,15.16994050,.0010498,51.8822,6.5913,218.9017,312.6794,0,U,68878,999,387,-.12048E-2,-.24383E-3,0
KUIPER-00488,2026-095R,2026-05-22T15:09:43.803072,15.35584245,.001074,51.8678,6.2277,214.8069,145.2215,0,U,68879,999,379,.57708E-3,.1997E-3,0
KUIPER-00489,2026-095S,2026-05-22T13:25:56.123040,15.35936458,.0009676,51.8767,6.5126,203.8187,156.2353,0,U,68880,999,378,.87775E-3,.30962E-3,0
KUIPER-00499,2026-095T,2026-05-22T15:08:25.700928,15.35355290,.0008205,51.8709,6.2282,208.3777,151.6762,0,U,68881,999,379,.41829E-3,.1424E-3,0
KUIPER-00500,2026-095U,2026-05-22T18:00:02.000160,15.22805992,.0005174,51.8841,5.9075,206.1808,357.0569,0,U,68882,999,503,-.63975E-3,-.15471E-3,0
KUIPER-00502,2026-095V,2026-05-22T08:18:07.538112,15.37630995,.0005854,51.8805,7.3414,188.7856,171.3029,0,U,68883,999,375,.70935E-3,.26325E-3,0
KUIPER-00503,2026-095W,2026-05-21T01:22:49.905984,15.36585744,.0008113,51.8718,13.6980,179.7581,180.3410,0,U,68884,999,355,.10951107E-2,.39577E-3,0
KUIPER-00504,2026-095X,2026-05-22T18:00:02.000160,14.97465492,.0012663,51.8890,8.6144,229.8479,113.8140,0,U,68885,999,418,-.32712E-2,-.38626E-3,0
KUIPER-00505,2026-095Y,2026-05-22T08:10:03.794016,15.37882354,.0004305,51.8832,7.3058,174.2742,185.8295,0,U,68886,999,375,.45372E-3,.1681E-3,0
KUIPER-00507,2026-095Z,2026-05-22T15:37:51.702240,15.38841112,.0001147,51.8837,5.6479,98.8851,261.2266,0,U,68887,999,380,.74499E-3,.28788E-3,0
KUIPER-00511,2026-095AA,2026-05-22T08:25:46.564896,15.37271292,.000726,51.8778,7.3738,199.0020,161.0697,0,U,68888,999,375,.60569E-3,.22151E-3,0
KUIPER-00512,2026-095AB,2026-05-22T18:00:02.000160,15.29944430,.0004132,51.8845,5.4912,190.5005,182.2720,0,U,68889,999,490,-.55067E-3,-.16525E-3,0
KUIPER-00519,2026-095AC,2026-05-22T07:56:03.626592,15.38626320,.0002087,51.8844,7.2435,147.8359,212.2756,0,U,68890,999,375,.56373E-3,.21513E-3,0
KUIPER-00521,2026-095AD,2026-05-22T15:39:56.067264,15.38086948,.0001784,51.8845,5.6508,97.1265,262.9925,0,U,68891,999,380,.68434E-3,.25754E-3,0
KUIPER-00524,2026-095AE,2026-05-22T15:49:11.675424,15.38369912,.00023,51.8832,5.6953,170.9454,189.1575,0,U,68892,999,380,.7584E-3,.28863E-3,0
VIASAT-3 F3,2026-096A,2026-05-22T07:28:38.580096,1.26196328,.1285675,2.3915,280.5124,180.9795,163.9315,0,U,68893,999,29,0,-.123E-5,0
STARLINK-37527,2026-097A,2026-05-22T18:00:02.000160,15.49178027,.0001304,97.2858,338.4739,90.0979,55.8140,0,U,68895,999,483,-.71455E-4,-.3973E-4,0
STARLINK-37432,2026-097B,2026-05-22T18:00:02.000160,15.52344990,.0001499,97.2845,338.5666,45.9028,309.0680,0,U,68896,999,483,-.53556E-1,-.2842468E-1,0
STARLINK-37534,2026-097C,2026-05-22T18:00:02.000160,15.49175738,.0001933,97.2853,338.4152,89.5726,278.5756,0,U,68897,999,483,.22641E-4,.114E-4,0
STARLINK-37386,2026-097D,2026-05-22T18:00:02.000160,15.49176062,.0001473,97.2852,338.4206,88.5370,293.1609,0,U,68898,999,483,-.89402E-5,-.576E-5,0
STARLINK-37514,2026-097E,2026-05-22T18:00:02.000160,15.49177839,.0001777,97.2855,338.4969,94.5255,105.8762,0,U,68899,999,483,.19545E-4,.972E-5,0
STARLINK-36961,2026-097F,2026-05-22T18:00:02.000160,15.49175166,.0001933,97.2853,338.4174,84.6645,289.5975,0,U,68900,999,481,.23493E-4,.1187E-4,0
STARLINK-37360,2026-097G,2026-05-22T18:00:02.000160,15.49177969,.0001299,97.2858,338.4963,88.1462,111.1244,0,U,68901,999,483,-.88066E-4,-.4875E-4,0
STARLINK-37564,2026-097H,2026-05-22T18:00:02.000160,15.49174985,.0001495,97.2865,338.4672,94.8247,32.5015,0,U,68902,999,483,.47567E-3,.25852E-3,0
STARLINK-37567,2026-097J,2026-05-22T18:00:02.000160,15.49178028,.0001303,97.2859,338.4860,89.1194,85.7880,0,U,68903,999,483,-.10823E-3,-.597E-4,0
STARLINK-37528,2026-097K,2026-05-22T18:00:02.000160,15.49192581,.0001626,97.2857,338.5346,108.1063,176.8545,0,U,68904,999,483,.52418E-3,.28526E-3,0
STARLINK-37494,2026-097L,2026-05-22T18:00:02.000160,15.49175791,.0000791,97.2860,338.4556,95.2508,7.9320,0,U,68905,999,483,-.59263E-4,-.3311E-4,0
STARLINK-37541,2026-097M,2026-05-22T18:00:02.000160,15.49177968,.0001384,97.2859,338.4885,82.3521,98.9037,0,U,68906,999,483,-.8387E-4,-.4647E-4,0
STARLINK-37551,2026-097N,2026-05-22T15:06:02.085120,15.49229480,.0001107,97.2860,338.2699,98.6825,261.4551,0,U,68907,999,355,.11077E-2,.60705E-3,0
STARLINK-37566,2026-097P,2026-05-22T18:00:02.000160,15.47623992,.0002175,97.2856,338.5515,110.0276,209.9423,0,U,68908,999,483,-.47637E-1,-.217045E-1,0
STARLINK-37544,2026-097Q,2026-05-22T18:00:02.000160,15.49178473,.000149,97.2859,338.4499,91.4179,359.0571,0,U,68909,999,483,-.55189E-4,-.309E-4,0
STARLINK-37493,2026-097R,2026-05-22T18:00:02.000160,15.49179975,.0001308,97.2855,338.4990,90.9205,114.2446,0,U,68910,999,481,-.81044E-4,-.4494E-4,0
STARLINK-37543,2026-097S,2026-05-22T18:00:02.000160,15.49189439,.0001136,97.2856,338.5314,108.2776,174.1287,0,U,68911,999,483,.17538E-3,.946E-4,0
STARLINK-37477,2026-097T,2026-05-22T18:00:02.000160,15.49175167,.0001792,97.2859,338.4807,100.5038,62.6885,0,U,68912,999,483,-.73896E-4,-.4106E-4,0
STARLINK-37504,2026-097U,2026-05-22T18:00:02.000160,15.49179080,.0001543,97.2859,338.4823,91.2248,76.8668,0,U,68913,999,481,-.93669E-4,-.518E-4,0
STARLINK-37540,2026-097V,2026-05-22T11:37:47.858880,15.49222173,.0002922,97.2852,338.1600,87.8638,272.2948,0,U,68914,999,353,.97189E-3,.53193E-3,0
STARLINK-37516,2026-097W,2026-05-22T18:00:02.000160,15.49169985,.0001736,97.2853,338.5903,102.7130,312.9508,0,U,68915,999,483,.31663E-3,.17156E-3,0
STARLINK-37507,2026-097X,2026-05-22T18:00:02.000160,15.51313368,.0001565,97.2854,338.6048,93.2533,352.1783,0,U,68916,999,481,-.50216E-1,-.2600345E-1,0
STARLINK-37542,2026-097Y,2026-05-22T18:00:02.000160,15.49185196,.0001076,97.2863,338.4552,95.8683,2.1266,0,U,68917,999,483,.32981E-3,.17885E-3,0
STARLINK-37529,2026-097Z,2026-05-22T18:00:02.000160,15.49177211,.0001119,97.2864,338.4646,97.4727,23.4154,0,U,68918,999,483,.40078E-3,.21758E-3,0
KUIPER-00370,2026-098A,2026-05-22T13:09:44.809920,15.30665880,.0015632,51.8723,191.6569,62.9646,297.2931,0,U,68919,999,340,.17818E-3,.501E-4,0
KUIPER-00380,2026-098B,2026-05-22T11:01:27.405408,15.33770959,.0010152,51.8744,191.8202,49.4699,310.7168,0,U,68920,999,339,.44943E-3,.14571E-3,0
KUIPER-00386,2026-098C,2026-05-22T12:03:33.420096,15.35315629,.0003532,51.8722,191.3652,74.5366,285.6010,0,U,68921,999,340,.51643E-3,.17645E-3,0
